{"type": "FeatureCollection", "features": [{"type": "Feature", "properties": {"norad_id": 28054, "name": "DMSP 5D-3 F16 (USA 172)", "group": "weather", "lat": 2.6412269226008296, "lon": 0.8743142875598128, "alt_km": 842.8112059761379, "timestamp": "2025-12-09T20:37:08.925515+00:00", "meta": {"OBJECT_NAME": "DMSP 5D-3 F16 (USA 172)", "OBJECT_ID": "2003-048A", "EPOCH": "2025-12-09T14:19:18.983136", "MEAN_MOTION": 14.14422633, "ECCENTRICITY": 0.00066109, "INCLINATION": 99.0048, "RA_OF_ASC_NODE": 1.029, "ARG_OF_PERICENTER": 330.6587, "MEAN_ANOMALY": 136.7966, "EPHEMERIS_TYPE": 0, "CLASSIFICATION_TYPE": "U", "NORAD_CAT_ID": 28054, "ELEMENT_SET_NO": 999, "REV_AT_EPOCH": 14268, "BSTAR": 0.00014288889, "MEAN_MOTION_DOT": 2.28e-06, "MEAN_MOTION_DDOT": 0}, "tle": {"line1": "1 28054U 03048A   25343.59674749  .00000228  00000+0  14289-3 0  9990", "line2": "2 28054  99.0048   1.0290 0006610 330.6587 136.7966 14.14422633142687"}}, "geometry": {"type": "Point", "coordinates": [0.8743142875598128, 2.6412269226008296]}}, {"type": "Feature", "properties": {"norad_id": 28912, "name": "METEOSAT-9 (MSG-2)", "group": "weather", "lat": 2.7309945108861777, "lon": 73.55910855456933, "alt_km": 35801.04498143482, "timestamp": "2025-12-09T20:37:08.925562+00:00", "meta": {"OBJECT_NAME": "METEOSAT-9 (MSG-2)", "OBJECT_ID": "2005-049B", "EPOCH": "2025-12-08T20:40:05.248704", "MEAN_MOTION": 1.00274262, "ECCENTRICITY": 0.000384, "INCLINATION": 8.931, "RA_OF_ASC_NODE": 56.0124, "ARG_OF_PERICENTER": 190.0622, "MEAN_ANOMALY": 187.4345, "EPHEMERIS_TYPE": 0, "CLASSIFICATION_TYPE": "U", "NORAD_CAT_ID": 28912, "ELEMENT_SET_NO": 999, "REV_AT_EPOCH": 509, "BSTAR": 0, "MEAN_MOTION_DOT": 1.23e-06, "MEAN_MOTION_DDOT": 0}, "tle": {"line1": "1 28912U 05049B   25342.86117186  .00000123  00000+0  00000+0 0  9998", "line2": "2 28912   8.9310  56.0124 0003840 190.0622 187.4345  1.00274262  5098"}}, "geometry": {"type": "Point", "coordinates": [73.55910855456933, 2.7309945108861777]}}, {"type": "Feature", "properties": {"norad_id": 29522, "name": "DMSP 5D-3 F17 (USA 191)", "group": "weather", "lat": -60.67558496253817, "lon": 5.2005816577396065, "alt_km": 846.7961854454197, "timestamp": "2025-12-09T20:37:08.925580+00:00", "meta": {"OBJECT_NAME": "DMSP 5D-3 F17 (USA 191)", "OBJECT_ID": "2006-050A", "EPOCH": "2025-12-09T14:07:21.427680", "MEAN_MOTION": 14.14917593, "ECCENTRICITY": 0.00092946, "INCLINATION": 98.7393, "RA_OF_ASC_NODE": 349.0431, "ARG_OF_PERICENTER": 234.6073, "MEAN_ANOMALY": 125.4233, "EPHEMERIS_TYPE": 0, "CLASSIFICATION_TYPE": "U", "NORAD_CAT_ID": 29522, "ELEMENT_SET_NO": 999, "REV_AT_EPOCH": 98560, "BSTAR": 0.00017459592, "MEAN_MOTION_DOT": 2.94e-06, "MEAN_MOTION_DDOT": 0}, "tle": {"line1": "1 29522U 06050A   25343.58844245  .00000294  00000+0  17460-3 0  9993", "line2": "2 29522  98.7393 349.0431 0009294 234.6073 125.4233 14.14917593985606"}}, "geometry": {"type": "Point", "coordinates": [5.2005816577396065, -60.67558496253817]}}, {"type": "Feature", "properties": {"norad_id": 32958, "name": "FENGYUN 3A", "group": "weather", "lat": -35.12040665284421, "lon": -70.39305575756207, "alt_km": 827.4380227408446, "timestamp": "2025-12-09T20:37:08.925594+00:00", "meta": {"OBJECT_NAME": "FENGYUN 3A", "OBJECT_ID": "2008-026A", "EPOCH": "2025-12-09T14:01:10.261056", "MEAN_MOTION": 14.19513013, "ECCENTRICITY": 0.00080396, "INCLINATION": 98.6694, "RA_OF_ASC_NODE": 283.1775, "ARG_OF_PERICENTER": 320.3874, "MEAN_ANOMALY": 39.6714, "EPHEMERIS_TYPE": 0, "CLASSIFICATION_TYPE": "U", "NORAD_CAT_ID": 32958, "ELEMENT_SET_NO": 999, "REV_AT_EPOCH": 90850, "BSTAR": 0.00012841113, "MEAN_MOTION_DOT": 2.27e-06, "MEAN_MOTION_DDOT": 0}, "tle": {"line1": "1 32958U 08026A   25343.58414654  .00000227  00000+0  12841-3 0  9996", "line2": "2 32958  98.6694 283.1775 0008039 320.3874  39.6714 14.19513013908501"}}, "geometry": {"type": "Point", "coordinates": [-70.39305575756207, -35.12040665284421]}}, {"type": "Feature", "properties": {"norad_id": 35491, "name": "GOES 14", "group": "weather", "lat": -0.31528251717405853, "lon": -80.14183687151852, "alt_km": 35772.54088427195, "timestamp": "2025-12-09T20:37:08.925609+00:00", "meta": {"OBJECT_NAME": "GOES 14", "OBJECT_ID": "2009-033A", "EPOCH": "2025-12-09T13:13:47.949024", "MEAN_MOTION": 1.00273221, "ECCENTRICITY": 0.00040286, "INCLINATION": 1.1914, "RA_OF_ASC_NODE": 85.443, "ARG_OF_PERICENTER": 154.9099, "MEAN_ANOMALY": 288.3378, "EPHEMERIS_TYPE": 0, "CLASSIFICATION_TYPE": "U", "NORAD_CAT_ID": 35491, "ELEMENT_SET_NO": 999, "REV_AT_EPOCH": 469, "BSTAR": 0, "MEAN_MOTION_DOT": -6.6e-07, "MEAN_MOTION_DDOT": 0}, "tle": {"line1": "1 35491U 09033A   25343.55124941 -.00000066  00000+0  00000+0 0  9996", "line2": "2 35491   1.1914  85.4430 0004028 154.9099 288.3378  1.00273221  4691"}}, "geometry": {"type": "Point", "coordinates": [-80.14183687151852, -0.31528251717405853]}}, {"type": "Feature", "properties": {"norad_id": 35951, "name": "DMSP 5D-3 F18 (USA 210)", "group": "weather", "lat": 12.606077676138923, "lon": 142.2787158891211, "alt_km": 845.2705040204592, "timestamp": "2025-12-09T20:37:08.925621+00:00", "meta": {"OBJECT_NAME": "DMSP 5D-3 F18 (USA 210)", "OBJECT_ID": "2009-057A", "EPOCH": "2025-12-09T14:44:27.504672", "MEAN_MOTION": 14.14766455, "ECCENTRICITY": 0.00120983, "INCLINATION": 98.8831, "RA_OF_ASC_NODE": 320.0307, "ARG_OF_PERICENTER": 70.9136, "MEAN_ANOMALY": 289.3346, "EPHEMERIS_TYPE": 0, "CLASSIFICATION_TYPE": "U", "NORAD_CAT_ID": 35951, "ELEMENT_SET_NO": 999, "REV_AT_EPOCH": 83278, "BSTAR": 0.00025774271, "MEAN_MOTION_DOT": 4.53e-06, "MEAN_MOTION_DDOT": 0}, "tle": {"line1": "1 35951U 09057A   25343.61420723  .00000453  00000+0  25774-3 0  9995", "line2": "2 35951  98.8831 320.0307 0012098  70.9136 289.3346 14.14766455832789"}}, "geometry": {"type": "Point", "coordinates": [142.2787158891211, 12.606077676138923]}}, {"type": "Feature", "properties": {"norad_id": 36411, "name": "EWS-G2 (GOES 15)", "group": "weather", "lat": 0.06881451496955775, "lon": 89.5477014820963, "alt_km": 35811.49678364537, "timestamp": "2025-12-09T20:37:08.925635+00:00", "meta": {"OBJECT_NAME": "EWS-G2 (GOES 15)", "OBJECT_ID": "2010-008A", "EPOCH": "2025-12-09T13:51:58.495968", "MEAN_MOTION": 1.00269024, "ECCENTRICITY": 0.00059144, "INCLINATION": 0.8061, "RA_OF_ASC_NODE": 86.0543, "ARG_OF_PERICENTER": 173.5517, "MEAN_ANOMALY": 88.3883, "EPHEMERIS_TYPE": 0, "CLASSIFICATION_TYPE": "U", "NORAD_CAT_ID": 36411, "ELEMENT_SET_NO": 999, "REV_AT_EPOCH": 5773, "BSTAR": 0, "MEAN_MOTION_DOT": 4e-07, "MEAN_MOTION_DDOT": 0}, "tle": {"line1": "1 36411U 10008A   25343.57776037  .00000040  00000+0  00000+0 0  9995", "line2": "2 36411   0.8061  86.0543 0005914 173.5517  88.3883  1.00269024 57730"}}, "geometry": {"type": "Point", "coordinates": [89.5477014820963, 0.06881451496955775]}}, {"type": "Feature", "properties": {"norad_id": 36744, "name": "COMS 1", "group": "weather", "lat": 4.2491212230888324, "lon": 156.26469693874014, "alt_km": 35788.43716005586, "timestamp": "2025-12-09T20:37:08.925648+00:00", "meta": {"OBJECT_NAME": "COMS 1", "OBJECT_ID": "2010-032A", "EPOCH": "2025-12-09T12:28:14.017152", "MEAN_MOTION": 1.00271032, "ECCENTRICITY": 0.00011224, "INCLINATION": 4.3336, "RA_OF_ASC_NODE": 78.0324, "ARG_OF_PERICENTER": 202.2699, "MEAN_ANOMALY": 113.4411, "EPHEMERIS_TYPE": 0, "CLASSIFICATION_TYPE": "U", "NORAD_CAT_ID": 36744, "ELEMENT_SET_NO": 999, "REV_AT_EPOCH": 4918, "BSTAR": 0, "MEAN_MOTION_DOT": -3.42e-06, "MEAN_MOTION_DDOT": 0}, "tle": {"line1": "1 36744U 10032A   25343.51960668 -.00000342  00000+0  00000+0 0  9996", "line2": "2 36744   4.3336  78.0324 0001122 202.2699 113.4411  1.00271032 49188"}}, "geometry": {"type": "Point", "coordinates": [156.26469693874014, 4.2491212230888324]}}, {"type": "Feature", "properties": {"norad_id": 37214, "name": "FENGYUN 3B", "group": "weather", "lat": 47.63394654039912, "lon": -146.18801517644417, "alt_km": 848.0627449651474, "timestamp": "2025-12-09T20:37:08.925660+00:00", "meta": {"OBJECT_NAME": "FENGYUN 3B", "OBJECT_ID": "2010-059A", "EPOCH": "2025-12-09T15:22:31.886112", "MEAN_MOTION": 14.14787991, "ECCENTRICITY": 0.00222567, "INCLINATION": 98.9904, "RA_OF_ASC_NODE": 23.5959, "ARG_OF_PERICENTER": 6.5814, "MEAN_ANOMALY": 92.5434, "EPHEMERIS_TYPE": 0, "CLASSIFICATION_TYPE": "U", "NORAD_CAT_ID": 37214, "ELEMENT_SET_NO": 999, "REV_AT_EPOCH": 78062, "BSTAR": 9.9967863e-05, "MEAN_MOTION_DOT": 1.48e-06, "MEAN_MOTION_DDOT": 0}, "tle": {"line1": "1 37214U 10059A   25343.64064683  .00000148  00000+0  99968-4 0  9993", "line2": "2 37214  98.9904  23.5959 0022256   6.5814  92.5434 14.14787991780623"}}, "geometry": {"type": "Point", "coordinates": [-146.18801517644417, 47.63394654039912]}}, {"type": "Feature", "properties": {"norad_id": 37849, "name": "SUOMI NPP", "group": "weather", "lat": -74.19091157836279, "lon": -45.70505367968574, "alt_km": 835.7234303304413, "timestamp": "2025-12-09T20:37:08.925671+00:00", "meta": {"OBJECT_NAME": "SUOMI NPP", "OBJECT_ID": "2011-061A", "EPOCH": "2025-12-09T14:12:50.084640", "MEAN_MOTION": 14.19512871, "ECCENTRICITY": 0.0002143, "INCLINATION": 98.7769, "RA_OF_ASC_NODE": 280.9622, "ARG_OF_PERICENTER": 125.6849, "MEAN_ANOMALY": 234.4526, "EPHEMERIS_TYPE": 0, "CLASSIFICATION_TYPE": "U", "NORAD_CAT_ID": 37849, "ELEMENT_SET_NO": 999, "REV_AT_EPOCH": 73154, "BSTAR": 0.00012180768, "MEAN_MOTION_DOT": 2.13e-06, "MEAN_MOTION_DDOT": 0}, "tle": {"line1": "1 37849U 11061A   25343.59224635  .00000213  00000+0  12181-3 0  9994", "line2": "2 37849  98.7769 280.9622 0002143 125.6849 234.4526 14.19512871731548"}}, "geometry": {"type": "Point", "coordinates": [-45.70505367968574, -74.19091157836279]}}]}